CCSDS_OMM_VERS = 2.0
CREATION_DATE  = 
ORIGINATOR     = 

OBJECT_NAME    = OKEAN-3
OBJECT_ID      = 1991-039A
CENTER_NAME    = EARTH
REF_FRAME      = TEME
TIME_SYSTEM    = UTC
MEAN_ELEMENT_THEORY = SGP/SGP4

EPOCH          = 2025-10-28T12:06:08.643744
MEAN_MOTION    = 15.03660068
ECCENTRICITY   = .00157939
INCLINATION    = 82.5142
RA_OF_ASC_NODE = 104.8161
ARG_OF_PERICENTER = 63.6731
MEAN_ANOMALY   = 296.6115

EPHEMERIS_TYPE = 0
CLASSIFICATION_TYPE = U
NORAD_CAT_ID   = 21397
ELEMENT_SET_NO = 999
REV_AT_EPOCH   = 84516
BSTAR          = .29019449E-3
MEAN_MOTION_DOT = .401E-4
MEAN_MOTION_DDOT = 0

CCSDS_OMM_VERS = 2.0
CREATION_DATE  = 
ORIGINATOR     = 

OBJECT_NAME    = COSMOS 2151
OBJECT_ID      = 1991-042A
CENTER_NAME    = EARTH
REF_FRAME      = TEME
TIME_SYSTEM    = UTC
MEAN_ELEMENT_THEORY = SGP/SGP4

EPOCH          = 2025-10-28T13:58:04.995264
MEAN_MOTION    = 14.99440311
ECCENTRICITY   = .00134785
INCLINATION    = 82.4991
RA_OF_ASC_NODE = 211.0041
ARG_OF_PERICENTER = 139.2125
MEAN_ANOMALY   = 221.0111

EPHEMERIS_TYPE = 0
CLASSIFICATION_TYPE = U
NORAD_CAT_ID   = 21422
ELEMENT_SET_NO = 999
REV_AT_EPOCH   = 84339
BSTAR          = .21958065E-3
MEAN_MOTION_DOT = .2721E-4
MEAN_MOTION_DDOT = 0

CCSDS_OMM_VERS = 2.0
CREATION_DATE  = 
ORIGINATOR     = 

OBJECT_NAME    = SL-14 R/B
OBJECT_ID      = 1991-042B
CENTER_NAME    = EARTH
REF_FRAME      = TEME
TIME_SYSTEM    = UTC
MEAN_ELEMENT_THEORY = SGP/SGP4

EPOCH          = 2025-10-28T12:51:52.236000
MEAN_MOTION    = 14.81679064
ECCENTRICITY   = .00159751
INCLINATION    = 82.4941
RA_OF_ASC_NODE = 344.1166
ARG_OF_PERICENTER = 319.4645
MEAN_ANOMALY   = 40.5378

EPHEMERIS_TYPE = 0
CLASSIFICATION_TYPE = U
NORAD_CAT_ID   = 21423
ELEMENT_SET_NO = 999
REV_AT_EPOCH   = 83350
BSTAR          = .67779217E-4
MEAN_MOTION_DOT = .557E-5
MEAN_MOTION_DDOT = 0

CCSDS_OMM_VERS = 2.0
CREATION_DATE  = 
ORIGINATOR     = 

OBJECT_NAME    = ERS-1
OBJECT_ID      = 1991-050A
CENTER_NAME    = EARTH
REF_FRAME      = TEME
TIME_SYSTEM    = UTC
MEAN_ELEMENT_THEORY = SGP/SGP4

EPOCH          = 2025-10-28T11:33:46.319904
MEAN_MOTION    = 14.39312714
ECCENTRICITY   = .00311356
INCLINATION    = 98.7933
RA_OF_ASC_NODE = 311.3979
ARG_OF_PERICENTER = 233.3706
MEAN_ANOMALY   = 126.4617

EPHEMERIS_TYPE = 0
CLASSIFICATION_TYPE = U
NORAD_CAT_ID   = 21574
ELEMENT_SET_NO = 999
REV_AT_EPOCH   = 79671
BSTAR          = .17365328E-3
MEAN_MOTION_DOT = .496E-5
MEAN_MOTION_DDOT = 0

CCSDS_OMM_VERS = 2.0
CREATION_DATE  = 
ORIGINATOR     = 

OBJECT_NAME    = ARIANE 40 R/B
OBJECT_ID      = 1991-050F
CENTER_NAME    = EARTH
REF_FRAME      = TEME
TIME_SYSTEM    = UTC
MEAN_ELEMENT_THEORY = SGP/SGP4

EPOCH          = 2025-10-28T13:40:23.675808
MEAN_MOTION    = 14.42755390
ECCENTRICITY   = .00043396
INCLINATION    = 98.2230
RA_OF_ASC_NODE = 353.6162
ARG_OF_PERICENTER = 109.5551
MEAN_ANOMALY   = 250.6109

EPHEMERIS_TYPE = 0
CLASSIFICATION_TYPE = U
NORAD_CAT_ID   = 21610
ELEMENT_SET_NO = 999
REV_AT_EPOCH   = 79994
BSTAR          = .15808793E-3
MEAN_MOTION_DOT = .485E-5
MEAN_MOTION_DDOT = 0

CCSDS_OMM_VERS = 2.0
CREATION_DATE  = 
ORIGINATOR     = 

OBJECT_NAME    = INTERCOSMOS 25
OBJECT_ID      = 1991-086A
CENTER_NAME    = EARTH
REF_FRAME      = TEME
TIME_SYSTEM    = UTC
MEAN_ELEMENT_THEORY = SGP/SGP4

EPOCH          = 2025-10-28T07:22:38.472672
MEAN_MOTION    = 12.11540046
ECCENTRICITY   = .14889821
INCLINATION    = 82.6088
RA_OF_ASC_NODE = 30.0284
ARG_OF_PERICENTER = 42.2881
MEAN_ANOMALY   = 328.3805

EPHEMERIS_TYPE = 0
CLASSIFICATION_TYPE = U
NORAD_CAT_ID   = 21819
ELEMENT_SET_NO = 999
REV_AT_EPOCH   = 48065
BSTAR          = .2706816E-3
MEAN_MOTION_DOT = .1407E-4
MEAN_MOTION_DDOT = 0

CCSDS_OMM_VERS = 2.0
CREATION_DATE  = 
ORIGINATOR     = 

OBJECT_NAME    = SL-8 R/B
OBJECT_ID      = 1992-008B
CENTER_NAME    = EARTH
REF_FRAME      = TEME
TIME_SYSTEM    = UTC
MEAN_ELEMENT_THEORY = SGP/SGP4

EPOCH          = 2025-10-28T14:46:40.128672
MEAN_MOTION    = 13.75945906
ECCENTRICITY   = .00356728
INCLINATION    = 82.9305
RA_OF_ASC_NODE = 6.0064
ARG_OF_PERICENTER = 141.9663
MEAN_ANOMALY   = 25.7985

EPHEMERIS_TYPE = 0
CLASSIFICATION_TYPE = U
NORAD_CAT_ID   = 21876
ELEMENT_SET_NO = 999
REV_AT_EPOCH   = 69125
BSTAR          = .95533112E-4
MEAN_MOTION_DOT = .109E-5
MEAN_MOTION_DDOT = 0

CCSDS_OMM_VERS = 2.0
CREATION_DATE  = 
ORIGINATOR     = 

OBJECT_NAME    = SL-8 R/B
OBJECT_ID      = 1992-020B
CENTER_NAME    = EARTH
REF_FRAME      = TEME
TIME_SYSTEM    = UTC
MEAN_ELEMENT_THEORY = SGP/SGP4

EPOCH          = 2025-10-28T14:35:55.587264
MEAN_MOTION    = 13.75519404
ECCENTRICITY   = .00279671
INCLINATION    = 82.9291
RA_OF_ASC_NODE = 251.8307
ARG_OF_PERICENTER = 308.6597
MEAN_ANOMALY   = 171.6866

EPHEMERIS_TYPE = 0
CLASSIFICATION_TYPE = U
NORAD_CAT_ID   = 21938
ELEMENT_SET_NO = 999
REV_AT_EPOCH   = 68297
BSTAR          = .57843249E-4
MEAN_MOTION_DOT = .71E-6
MEAN_MOTION_DDOT = 0

CCSDS_OMM_VERS = 2.0
CREATION_DATE  = 
ORIGINATOR     = 

OBJECT_NAME    = USA 81
OBJECT_ID      = 1992-023A
CENTER_NAME    = EARTH
REF_FRAME      = TEME
TIME_SYSTEM    = UTC
MEAN_ELEMENT_THEORY = SGP/SGP4

EPOCH          = 2025-10-28T06:36:45.652032
MEAN_MOTION    = 14.32301975
ECCENTRICITY   = .00027546
INCLINATION    = 85.0117
RA_OF_ASC_NODE = 207.7873
ARG_OF_PERICENTER = 90.0731
MEAN_ANOMALY   = 270.0777

EPHEMERIS_TYPE = 0
CLASSIFICATION_TYPE = U
NORAD_CAT_ID   = 21949
ELEMENT_SET_NO = 999
REV_AT_EPOCH   = 7583
BSTAR          = .98131783E-4
MEAN_MOTION_DOT = .285E-5
MEAN_MOTION_DDOT = 0

CCSDS_OMM_VERS = 2.0
CREATION_DATE  = 
ORIGINATOR     = 

OBJECT_NAME    = COSMOS 2219
OBJECT_ID      = 1992-076A
CENTER_NAME    = EARTH
REF_FRAME      = TEME
TIME_SYSTEM    = UTC
MEAN_ELEMENT_THEORY = SGP/SGP4

EPOCH          = 2025-10-28T10:50:06.100800
MEAN_MOTION    = 14.14054459
ECCENTRICITY   = .00167293
INCLINATION    = 71.0590
RA_OF_ASC_NODE = 294.5013
ARG_OF_PERICENTER = 37.0684
MEAN_ANOMALY   = 323.1591

EPHEMERIS_TYPE = 0
CLASSIFICATION_TYPE = U
NORAD_CAT_ID   = 22219
ELEMENT_SET_NO = 999
REV_AT_EPOCH   = 69968
BSTAR          = .25790572E-3
MEAN_MOTION_DOT = .444E-5
MEAN_MOTION_DDOT = 0

CCSDS_OMM_VERS = 2.0
CREATION_DATE  = 
ORIGINATOR     = 

OBJECT_NAME    = SL-16 R/B
OBJECT_ID      = 1992-076B
CENTER_NAME    = EARTH
REF_FRAME      = TEME
TIME_SYSTEM    = UTC
MEAN_ELEMENT_THEORY = SGP/SGP4

EPOCH          = 2025-10-28T12:45:59.039712
MEAN_MOTION    = 14.16828759
ECCENTRICITY   = .00149568
INCLINATION    = 70.9974
RA_OF_ASC_NODE = 106.7577
ARG_OF_PERICENTER = 292.6788
MEAN_ANOMALY   = 124.9505

EPHEMERIS_TYPE = 0
CLASSIFICATION_TYPE = U
NORAD_CAT_ID   = 22220
ELEMENT_SET_NO = 999
REV_AT_EPOCH   = 70311
BSTAR          = .1446103E-4
MEAN_MOTION_DOT = -.19E-6
MEAN_MOTION_DDOT = 0

CCSDS_OMM_VERS = 2.0
CREATION_DATE  = 
ORIGINATOR     = 

OBJECT_NAME    = COSMOS 2221
OBJECT_ID      = 1992-080A
CENTER_NAME    = EARTH
REF_FRAME      = TEME
TIME_SYSTEM    = UTC
MEAN_ELEMENT_THEORY = SGP/SGP4

EPOCH          = 2025-10-28T09:22:20.485632
MEAN_MOTION    = 14.95486586
ECCENTRICITY   = .00131912
INCLINATION    = 82.5061
RA_OF_ASC_NODE = 45.7124
ARG_OF_PERICENTER = 277.4826
MEAN_ANOMALY   = 82.4896

EPHEMERIS_TYPE = 0
CLASSIFICATION_TYPE = U
NORAD_CAT_ID   = 22236
ELEMENT_SET_NO = 999
REV_AT_EPOCH   = 76101
BSTAR          = .27757914E-3
MEAN_MOTION_DOT = .3101E-4
MEAN_MOTION_DDOT = 0

