OKEAN-3                 
1 21397U 91039A   25301.50426671  .00004010  00000+0  29019-3 0  9994
2 21397  82.5142 104.8161 0015793  63.6731 296.6115 15.03660068845167
COSMOS 2151             
1 21422U 91042A   25301.58200226  .00002721  00000+0  21958-3 0  9992
2 21422  82.4991 211.0041 0013478 139.2125 221.0111 14.99440311843392
SL-14 R/B               
1 21423U 91042B   25301.53602125  .00000557  00000+0  67779-4 0  9999
2 21423  82.4941 344.1166 0015975 319.4645  40.5378 14.81679064833508
ERS-1                   
1 21574U 91050A   25301.48178611  .00000496  00000+0  17365-3 0  9994
2 21574  98.7933 311.3979 0031135 233.3706 126.4617 14.39312714796712
ARIANE 40 R/B           
1 21610U 91050F   25301.56971847  .00000485  00000+0  15809-3 0  9995
2 21610  98.2230 353.6162 0004339 109.5551 250.6109 14.42755390799948
INTERCOSMOS 25          
1 21819U 91086A   25301.30738973  .00001407  00000+0  27068-3 0  9993
2 21819  82.6088  30.0284 1488982  42.2881 328.3805 12.11540046480653
SL-8 R/B                
1 21876U 92008B   25301.61574223  .00000109  00000+0  95533-4 0  9992
2 21876  82.9305   6.0064 0035672 141.9663  25.7985 13.75945906691250
SL-8 R/B                
1 21938U 92020B   25301.60828226  .00000071  00000+0  57843-4 0  9999
2 21938  82.9291 251.8307 0027967 308.6597 171.6866 13.75519404682977
USA 81                  
1 21949U 92023A   25301.27552838  .00000285  00000+0  98132-4 0  9993
2 21949  85.0117 207.7873 0002754  90.0731 270.0777 14.32301975 75839
COSMOS 2219             
1 22219U 92076A   25301.45145950  .00000444  00000+0  25791-3 0  9992
2 22219  71.0590 294.5013 0016729  37.0684 323.1591 14.14054459699686
SL-16 R/B               
1 22220U 92076B   25301.53193333 -.00000019  00000+0  14461-4 0  9993
2 22220  70.9974 106.7577 0014956 292.6788 124.9505 14.16828759703115
COSMOS 2221             
1 22236U 92080A   25301.39051488  .00003101  00000+0  27758-3 0  9999
2 22236  82.5061  45.7124 0013191 277.4826  82.4896 14.95486586761011
